[{"OBJECT_NAME":"STARLINK-1653","OBJECT_ID":"2020-062AD","EPOCH":"2026-03-10T00:00:02.999808","MEAN_MOTION":15.59225016,"ECCENTRICITY":0.00059506,"INCLINATION":53.0453,"RA_OF_ASC_NODE":320.9315,"ARG_OF_PERICENTER":251.2648,"MEAN_ANOMALY":247.8149,"EPHEMERIS_TYPE":0,"CLASSIFICATION_TYPE":"U","NORAD_CAT_ID":46352,"ELEMENT_SET_NO":999,"REV_AT_EPOCH":583,"BSTAR":0.0018332466,"MEAN_MOTION_DOT":0.00148839,"MEAN_MOTION_DDOT":0},{"OBJECT_NAME":"AIST-2T 2","OBJECT_ID":"2025-313G","EPOCH":"2026-03-09T21:32:59.687520","MEAN_MOTION":15.60844796,"ECCENTRICITY":0.00108481,"INCLINATION":97.0913,"RA_OF_ASC_NODE":146.4999,"ARG_OF_PERICENTER":225.895,"MEAN_ANOMALY":134.1416,"EPHEMERIS_TYPE":0,"CLASSIFICATION_TYPE":"U","NORAD_CAT_ID":67254,"ELEMENT_SET_NO":999,"REV_AT_EPOCH":1112,"BSTAR":0.0018608584,"MEAN_MOTION_DOT":0.0015826,"MEAN_MOTION_DDOT":0}]
